IRIDIUM 63              
1 25286U 98021B   25092.60140379  .00000712  00000+0  23639-3 0  9996
2 25286  86.3936 113.8530 0002345  94.5101 265.6364 14.36457075412994
IRIDIUM 69              
1 25319U 98026A   25092.56767285  .00000854  00000+0  26037-3 0  9996
2 25319  86.3956 127.3856 0000066  17.1133 343.0069 14.40864639412174
IRIDIUM 71              
1 25320U 98026B   25092.58471704  .00000651  00000+0  19611-3 0  9993
2 25320  86.3943 122.0827 0002394  37.4007 322.7359 14.41064627412708
IRIDIUM 73              
1 25344U 98032C   25092.44466916  .00001474  00000+0  36330-3 0  9991
2 25344  86.4365  78.9859 0001754  94.0390 266.1016 14.51570069419576
IRIDIUM 82              
1 25467U 98051A   25092.56200863  .00037490  00000+0  12133-2 0  9999
2 25467  86.3697 146.7992 0092140 221.4696 137.9536 15.27771215412390
